{"spkid": "20523814", "covariance": {"epoch": "2455652.5", "data": [["5.261287141268047E-16", "-7.292957425943167E-16", "1.627726368804752E-13", "-1.667100984589812E-13", "2.737606027408733E-13", "-7.497897700548512E-15"], ["-7.292957425943167E-16", "1.056588128171647E-15", "-1.428455725718534E-13", "2.151126361862154E-13", "-3.229174936576424E-13", "9.582019122637878E-15"], ["1.627726368804752E-13", "-1.428455725718534E-13", "3.327391585290518E-10", "-1.557074682722937E-10", "3.797866482578758E-10", "-5.53138772496244E-12"], ["-1.667100984589812E-13", "2.151126361862154E-13", "-1.557074682722937E-10", "1.835106324374269E-9", "-1.943477920293543E-9", "-5.905333279172507E-11"], ["2.737606027408733E-13", "-3.229174936576424E-13", "3.797866482578758E-10", "-1.943477920293543E-9", "2.218501360475762E-9", "5.376916978908281E-11"], ["-7.497897700548512E-15", "9.582019122637878E-15", "-5.53138772496244E-12", "-5.905333279172507E-11", "5.376916978908281E-11", "3.607744043118377E-11"]], "elements": [{"title": "eccentricity", "value": ".3119730914673295", "units": null, "sigma": 2.29374958120281e-08, "name": "e", "label": "e"}, {"units": "au", "title": "perihelion distance", "value": ".9754617060925996", "name": "q", "sigma": 3.25052015556226e-08, "label": "q"}, {"units": "TDB", "title": "time of perihelion passage", "value": "2455502.449636641422", "sigma": 1.82411391784902e-05, "name": "tp", "label": "tp"}, {"units": "deg", "value": "227.1981252497264", "title": "longitude of the ascending node", "sigma": 4.28381410004481e-05, "name": "om", "label": "node"}, {"label": "peri", "sigma": 4.71009698464454e-05, "name": "w", "units": "deg", "title": "argument of perihelion", "value": "283.2701867832151"}, {"sigma": 6.00644990249513e-06, "name": "i", "title": "inclination", "value": "3.746697767327908", "units": "deg", "label": "i"}], "labels": ["e", "q", "tp", "node", "peri", "i"]}, "elements": [{"label": "e", "title": "eccentricity", "value": ".3118704328491987", "units": null, "sigma": "2.2841E-8", "name": "e"}, {"label": "a", "title": "semi-major axis", "value": "1.417870616366889", "units": "au", "name": "a", "sigma": "8.9441E-9"}, {"label": "q", "value": ".9756786935163874", "title": "perihelion distance", "units": "au", "name": "q", "sigma": "3.2443E-8"}, {"units": "deg", "value": "3.748329141214586", "title": "inclination; angle with respect to x-y ecliptic plane", "name": "i", "sigma": "6.0072E-6", "label": "i"}, {"label": "node", "units": "deg", "value": "227.0844056859313", "title": "longitude of the ascending node", "sigma": "4.2806E-5", "name": "om"}, {"label": "peri", "sigma": "4.7082E-5", "name": "w", "units": "deg", "value": "283.3912913422942", "title": "argument of perihelion"}, {"label": "M", "name": "ma", "sigma": "4.1839E-5", "title": "mean anomaly", "value": "86.25241208066029", "units": "deg"}, {"label": "tp", "title": "time of perihelion passage", "value": "2461052.751840764434", "units": "TDB", "name": "tp", "sigma": "7.0295E-5"}, {"name": "per", "sigma": "5.835E-6", "value": "616.6707230756961", "title": "sidereal orbital period", "units": "d", "label": "period"}, {"label": "n", "units": "deg/d", "title": "mean motion", "value": ".5837799437023219", "name": "n", "sigma": "5.5238E-9"}, {"label": "Q", "units": "au", "title": "aphelion distance", "value": "1.860062539217391", "sigma": "1.1733E-8", "name": "ad"}], "epoch": "2461200.5"}